#aV2010  6 15  0  0   .00000000      96 DD+AD WGS84 FIT  NGA
## 1588 172800.00000000   900.00000000 55362  .0000000000000
+   31     1  2  3  4  5  6  7  8  9 10 11 12 13 14 15 16 17
+         18 19 20 21 22 23 24 26 27 28 29 30 31 32  0  0  0
+          0  0  0  0  0  0  0  0  0  0  0  0  0  0  0  0  0
+          0  0  0  0  0  0  0  0  0  0  0  0  0  0  0  0  0
+          0  0  0  0  0  0  0  0  0  0  0  0  0  0  0  0  0
++         0  0  0  0  0  0  0  0  0  0  0  0  0  0  0  0  0
++         0  0  0  0  0  0  0  0  0  0  0  0  0  0  0  0  0
++         0  0  0  0  0  0  0  0  0  0  0  0  0  0  0  0  0
++         0  0  0  0  0  0  0  0  0  0  0  0  0  0  0  0  0
++         0  0  0  0  0  0  0  0  0  0  0  0  0  0  0  0  0
%c cc cc ccc ccc cccc cccc cccc cccc ccccc ccccc ccccc ccccc
%c cc cc ccc ccc cccc cccc cccc cccc ccccc ccccc ccccc ccccc
%f  0.0000000  0.000000000  0.00000000000  0.000000000000000
%f  0.0000000  0.000000000  0.00000000000  0.000000000000000
%i    0    0    0    0      0      0      0      0         0
%i    0    0    0    0      0      0      0      0         0
/*      NGA, ST. LOUIS,MO.                                  
/*   EPHEMERIS COMPUTED FROM  3 DAYS OF DATA                
/* CCCCCCCCCCCCCCCCCCCCCCCCCCCCCCCCCCCCCCCCCCCCCCCCCCCCCCCCC
/* CCCCCCCCCCCCCCCCCCCCCCCCCCCCCCCCCCCCCCCCCCCCCCCCCCCCCCCCC
*  2010  6 15  2  0   .00000000                                                 
P  1   8005.145755  12902.839111 -21926.266941   -130.793508                    
V  1 -23843.902003  13730.040173   -483.894114      -.039998                    
P  2 -13774.383265 -13250.064215 -18639.476954    264.683358                    
V  2   1226.881526 -23564.955597  15398.934732       .032922                    
P  3  24889.015746   9656.880571   1301.349444    568.476230                    
V  3    488.276545   4113.960813 -30714.465977       .051542                    
P  4  -6816.638506 -23706.830682  -9528.523785    104.084964                    
V  4   3480.301113 -11990.117630  28197.128645       .081634                    
P  5 -20657.791192  -1628.701595 -16679.053754     -7.363847                    
V  5  17407.920763 -12096.669925 -20315.403492      -.021371                    
P  6  23038.794310  13263.386186  -1614.454557    607.516608                    
V  6  -3624.475097   2084.768607 -30971.398529      -.127833                    
P  7   6671.070649 -23808.720706  -9476.861264     -1.222341                    
V  7   2261.840363  12074.625913 -28947.265206      -.001995                    
P  8    168.962925 -26115.210706   2810.930096      5.760521                    
V  8   2491.924985  -3449.211713 -32550.764965       .001505                    
P  9 -13898.202782   6960.820978  20985.440939     12.600946                    
V  9  -1289.134713 -27862.914720   8215.877262       .021535                    
P 10 -12640.036573 -10278.583837 -21215.129184    -44.630623                    
V 10  23036.001809 -13067.329495  -7115.983467      -.008811                    
P 11  13282.448023 -12002.476114  19269.243423    -69.094510                    
V 11   7679.035887  24345.623623  10104.639971      -.024508                    
P 12 -23662.407505  11734.806288   1868.364843   -104.064032                    
V 12    762.391973  -3408.474570  31974.902257       .041453                    
P 13   8739.701269 -11681.480622 -22337.006718    303.255205                    
V 13  23070.943932  15736.324700    767.433456      -.004566                    
P 14  11205.280541  19069.370035  14943.151904     57.129165                    
V 14 -16367.822328  -8998.404509  23847.986453       .041902                    
P 15 -23657.064997  -3832.655154  11593.383051   -256.101629                    
V 15 -11580.361887  -9345.267997 -26632.657332       .065682                    
P 16  16836.015447   6176.595210 -19647.976708    -81.540613                    
V 16 -21510.570582  12592.943314 -14171.013622      -.036738                    
P 17  -9634.915614 -19079.452524  16004.719710    156.678823                    
V 17  18006.154738   8992.187735  21495.440496       .020352                    
P 18 -12652.877906  18612.563120  14072.346441     74.707148                    
V 18 -16862.876969   5875.884682 -23772.631983       .024123                    
P 19  22953.505129   5034.222595  12710.892440    -42.325079                    
V 19  11909.527350  10864.991391 -25563.091389      -.027918                    
P 20  22568.988808 -13950.455266   -105.228362     54.637797                    
V 20   1866.506222   3084.773603  31258.070418      -.005033                    
P 21  -4403.148764  25222.428038  -5335.411954    -67.166750                    
V 21  -4062.131384  -7429.419649 -30496.581710      -.026162                    
P 22   -570.547610  17292.399893  20294.237277    169.708452                    
V 22 -23062.922280  10998.798058 -10196.643671      -.008327                    
P 23  17208.303933  -5476.937190 -19609.955951    366.963711                    
V 23  20743.320360  13486.414228  14138.450684      -.014793                    
P 24   4911.681623  24755.594775   8784.597012    296.272749                    
V 24  -3314.341373  10804.628094 -28630.337411       .032057                    
P 26 -22111.252808  -3906.551716  13940.517204    -66.287686                    
V 26 -14533.616920 -11445.711184 -24865.063680      -.055872                    
P 27 -15013.703373   2406.553572  22452.133704    161.115436                    
V 27  -1470.518259 -26790.496548   2110.524290       .034308                    
P 28   3375.152498 -17373.193516  20192.092837    -13.511240                    
V 28  22326.632742 -10512.302716 -13369.679746       .010293                    
P 29  -9353.996661  12023.242776 -21663.176378    127.459472                    
V 29 -23401.760401 -14882.538296   1877.832482       .027962                    
P 30 -17330.882501  18254.990804  -8791.517562    251.930359                    
V 30 -10414.257445   3423.762136  29008.400274       .033881                    
P 31   7550.646548  22543.758875 -11451.480806    -30.781978                    
V 31  -2272.268517  14877.097225  27471.958713       .023016                    
P 32  24786.514492  -5956.144713   7129.289575    -15.887028                    
V 32  -6661.267828   6310.517383  30183.568786      -.084579                    
EOF
